QIANFAN-41              
1 62242U 24232F   25231.88771761  .00000049  00000+0  57420-4 0  9991
2 62242  88.9932  52.7959 0014694 155.9973 204.1866 13.50960851 83744
QIANFAN-42              
1 62243U 24232G   25231.91435055  .00000155  00000+0  60766-4 0  9994
2 62243  88.9933  50.4790 0017318  98.9058 261.4096 14.24338483 85026
QIANFAN-43              
1 62244U 24232H   25231.88361653  .00000048  00000+0  55405-4 0  9998
2 62244  88.9937  52.8566 0016029 161.7637 198.4092 13.50964708 52356
QIANFAN-44              
1 62245U 24232J   25231.94532418  .00000073  00000+0  94109-4 0  9997
2 62245  88.9935  52.6627 0014364 157.8973 202.2800 13.50963606 83834
QIANFAN-45              
1 62246U 24232K   25231.91243007  .00000050  00000+0  58393-4 0  9998
2 62246  88.9939  52.8087 0015011 157.9811 202.1989 13.50959292 83757
QIANFAN-46              
1 62247U 24232L   25231.93709309  .00000072  00000+0  92479-4 0  9990
2 62247  88.9935  52.8798 0014909 163.2291 196.9356 13.50961356 83718
QIANFAN-47              
1 62248U 24232M   25231.94113816  .00000066  00000+0  84069-4 0  9993
2 62248  88.9931  52.8170 0015359 162.5782 197.5899 13.50961122 83749
QIANFAN-48              
1 62249U 24232N   25231.90417399  .00000078  00000+0  10162-3 0  9998
2 62249  88.9935  52.8181 0017507 166.1401 194.0235 13.50964200 83747
